{
  "type": "Feature",
  "properties": {"name": "Castilla y León"},
  "geometry": {
    "type": "Polygon",
    "coordinates": [[
      [-7.07, 42.25], [-7.05, 42.70], [-6.90, 43.05],
      [-6.50, 43.25], [-5.90, 43.30], [-5.10, 43.30],
      [-4.40, 43.20], [-3.70, 43.05], [-3.10, 42.85],
      [-2.80, 42.45], [-2.75, 42.00], [-2.80, 41.60],
      [-3.00, 41.20], [-3.50, 40.90], [-4.10, 40.75],
      [-4.80, 40.60], [-5.60, 40.55], [-6.20, 40.65],
      [-6.70, 41.00], [-7.00, 41.50], [-7.07, 42.25]
    ]]
  }
}
